{
"type": "FeatureCollection",
"name": "tracts",
"crs": { "type": "name", "properties": { "name": "urn:ogc:def:crs:OGC:1.3:CRS84" } },
"features": [
{ "type": "Feature", "properties": { "geoid": "41051003100" }, "geometry": { "type": "Polygon", "coordinates": [ [ [ -122.63903, 45.54982 ], [ -122.64097, 45.55184 ], [ -122.64086, 45.56269 ], [ -122.63066, 45.56272 ], [ -122.63069, 45.54826 ], [ -122.64111, 45.54823 ], [ -122.64105, 45.55076 ], [ -122.63903, 45.54982 ] ] ] } },
{ "type": "Feature", "properties": { "geoid": "41051003501" }, "geometry": { "type": "Polygon", "coordinates": [ [ [ -122.69974, 45.5627 ], [ -122.67497, 45.56268 ], [ -122.67494, 45.55688 ], [ -122.67545, 45.55549 ], [ -122.67751, 45.55559 ], [ -122.67871, 45.55608 ], [ -122.69423, 45.556 ], [ -122.69974, 45.5627 ] ] ] } },
{ "type": "Feature", "properties": { "geoid": "41051003803" }, "geometry": { "type": "Polygon", "coordinates": [ [ [ -122.69453, 45.56993 ], [ -122.67487, 45.56992 ], [ -122.67497, 45.56268 ], [ -122.6946, 45.56274 ], [ -122.69453, 45.56993 ] ] ] } },
{ "type": "Feature", "properties": { "geoid": "41051006601" }, "geometry": { "type": "Polygon", "coordinates": [ [ [ -122.74363, 45.47644 ], [ -122.72314, 45.47624 ], [ -122.72317, 45.46746 ], [ -122.74366, 45.46753 ], [ -122.74363, 45.47644 ] ] ] } },
{ "type": "Feature", "properties": { "geoid": "41051000801" }, "geometry": { "type": "Polygon", "coordinates": [ [ [ -122.61957, 45.5048 ], [ -122.61712, 45.50528 ], [ -122.59944, 45.50539 ], [ -122.59939, 45.49747 ], [ -122.61852, 45.49755 ], [ -122.6226, 45.49734 ], [ -122.62266, 45.5048 ], [ -122.61957, 45.5048 ] ] ] } },
{ "type": "Feature", "properties": { "geoid": "41051002502" }, "geometry": { "type": "GeometryCollection", "geometries": [ { "type": "Polygon", "coordinates": [ [ [ -122.63067, 45.53897 ], [ -122.63064, 45.53414 ], [ -122.63511, 45.53071 ], [ -122.6371, 45.53043 ], [ -122.64485, 45.53006 ], [ -122.64669, 45.53146 ], [ -122.64666, 45.53504 ], [ -122.64664, 45.53744 ], [ -122.64734, 45.53897 ], [ -122.63067, 45.53897 ] ] ] }, { "type": "LineString", "coordinates": [ [ -122.64666, 45.53504 ], [ -122.64473, 45.53504 ] ] } ] } },
{ "type": "Feature", "properties": { "geoid": "41051006701" }, "geometry": { "type": "Polygon", "coordinates": [ [ [ -122.74375, 45.48708 ], [ -122.72757, 45.48688 ], [ -122.72323, 45.48579 ], [ -122.7232, 45.48499 ], [ -122.72714, 45.4835 ], [ -122.72374, 45.48432 ], [ -122.72318, 45.48423 ], [ -122.72314, 45.47624 ], [ -122.74367, 45.47644 ], [ -122.74375, 45.48708 ] ] ] } },
{ "type": "Feature", "properties": { "geoid": "41051005702" }, "geometry": { "type": "Polygon", "coordinates": [ [ [ -122.68175, 45.50892 ], [ -122.67874, 45.51453 ], [ -122.67472, 45.51342 ], [ -122.67389, 45.51388 ], [ -122.67055, 45.5131 ], [ -122.67057, 45.51245 ], [ -122.67042, 45.51307 ], [ -122.66856, 45.50828 ], [ -122.6736, 45.50542 ], [ -122.67756, 45.50557 ], [ -122.67984, 45.50575 ], [ -122.68199, 45.50642 ], [ -122.68175, 45.50892 ] ] ] } },
{ "type": "Feature", "properties": { "geoid": "41051010602" }, "geometry": { "type": "Polygon", "coordinates": [ [ [ -122.68327, 45.51574 ], [ -122.68008, 45.52176 ], [ -122.68009, 45.523 ], [ -122.66709, 45.52303 ], [ -122.66865, 45.51759 ], [ -122.67042, 45.51307 ], [ -122.67053, 45.51357 ], [ -122.67055, 45.5131 ], [ -122.67389, 45.51388 ], [ -122.67472, 45.51342 ], [ -122.68327, 45.51574 ] ] ] } },
{ "type": "Feature", "properties": { "geoid": "41051003200" }, "geometry": { "type": "Polygon", "coordinates": [ [ [ -122.65033, 45.555 ], [ -122.64991, 45.55546 ], [ -122.64969, 45.56272 ], [ -122.64086, 45.56269 ], [ -122.64097, 45.55184 ], [ -122.63903, 45.54982 ], [ -122.64105, 45.55076 ], [ -122.64111, 45.54823 ], [ -122.6504, 45.54824 ], [ -122.65033, 45.555 ] ] ] } },
{ "type": "Feature", "properties": { "geoid": "41051003402" }, "geometry": { "type": "Polygon", "coordinates": [ [ [ -122.67551, 45.55462 ], [ -122.66154, 45.55457 ], [ -122.66159, 45.54827 ], [ -122.6733, 45.54824 ], [ -122.67556, 45.54784 ], [ -122.67551, 45.55462 ] ] ] } },
{ "type": "Feature", "properties": { "geoid": "41051004200" }, "geometry": { "type": "Polygon", "coordinates": [ [ [ -122.77087, 45.60047 ], [ -122.77037, 45.60086 ], [ -122.766, 45.59422 ], [ -122.75661, 45.5981 ], [ -122.75339, 45.59492 ], [ -122.74736, 45.59337 ], [ -122.74925, 45.58955 ], [ -122.75104, 45.589 ], [ -122.75637, 45.58108 ], [ -122.76431, 45.58532 ], [ -122.77184, 45.59181 ], [ -122.77716, 45.59798 ], [ -122.77087, 45.60047 ] ] ] } },
{ "type": "Feature", "properties": { "geoid": "41051006402" }, "geometry": { "type": "Polygon", "coordinates": [ [ [ -122.71282, 45.44023 ], [ -122.71278, 45.4536 ], [ -122.70999, 45.45706 ], [ -122.70461, 45.4581 ], [ -122.70238, 45.45804 ], [ -122.69902, 45.45904 ], [ -122.6965, 45.45856 ], [ -122.69576, 45.45498 ], [ -122.69182, 45.45404 ], [ -122.68841, 45.45037 ], [ -122.68706, 45.44707 ], [ -122.6826, 45.4436 ], [ -122.68035, 45.44133 ], [ -122.68008, 45.43967 ], [ -122.67835, 45.43639 ], [ -122.67588, 45.43539 ], [ -122.67385, 45.4335 ], [ -122.67359, 45.4328 ], [ -122.70525, 45.43304 ], [ -122.70721, 45.43365 ], [ -122.70793, 45.43361 ], [ -122.70849, 45.43332 ], [ -122.70959, 45.43383 ], [ -122.71155, 45.4339 ], [ -122.71111, 45.43445 ], [ -122.71232, 45.43814 ], [ -122.71155, 45.44022 ], [ -122.71282, 45.44023 ] ] ] } },
{ "type": "Feature", "properties": { "geoid": "41051007400" }, "geometry": { "type": "Polygon", "coordinates": [ [ [ -122.61984, 45.5697 ], [ -122.61868, 45.57042 ], [ -122.59065, 45.56666 ], [ -122.59418, 45.56271 ], [ -122.62042, 45.5628 ], [ -122.62041, 45.56859 ], [ -122.61984, 45.5697 ] ] ] } },
{ "type": "Feature", "properties": { "geoid": "41051007500" }, "geometry": { "type": "Polygon", "coordinates": [ [ [ -122.62042, 45.5628 ], [ -122.59418, 45.56271 ], [ -122.60085, 45.55545 ], [ -122.60448, 45.5511 ], [ -122.60454, 45.54824 ], [ -122.61505, 45.54829 ], [ -122.61488, 45.55553 ], [ -122.6204, 45.55556 ], [ -122.62042, 45.5628 ] ], [ [ -122.61473, 45.55547 ], [ -122.61476, 45.55375 ], [ -122.61478, 45.5519 ], [ -122.61473, 45.55547 ] ] ] } },
{ "type": "Feature", "properties": { "geoid": "41051008600" }, "geometry": { "type": "Polygon", "coordinates": [ [ [ -122.58937, 45.46153 ], [ -122.58935, 45.47589 ], [ -122.57907, 45.47587 ], [ -122.57905, 45.46153 ], [ -122.58937, 45.46153 ] ] ] } },
{ "type": "Feature", "properties": { "geoid": "41051008902" }, "geometry": { "type": "Polygon", "coordinates": [ [ [ -122.57904, 45.46438 ], [ -122.56356, 45.47388 ], [ -122.55964, 45.47563 ], [ -122.55557, 45.47645 ], [ -122.5558, 45.4718 ], [ -122.55323, 45.47184 ], [ -122.55323, 45.4714 ], [ -122.55579, 45.47113 ], [ -122.5558, 45.47001 ], [ -122.5563, 45.47001 ], [ -122.5563, 45.46956 ], [ -122.55581, 45.46955 ], [ -122.55581, 45.46897 ], [ -122.5564, 45.46897 ], [ -122.5566, 45.46866 ], [ -122.55659, 45.46822 ], [ -122.5558, 45.46823 ], [ -122.55581, 45.46748 ], [ -122.5572, 45.46748 ], [ -122.55721, 45.46776 ], [ -122.55748, 45.46775 ], [ -122.55748, 45.46749 ], [ -122.55836, 45.46748 ], [ -122.55837, 45.46541 ], [ -122.55924, 45.46564 ], [ -122.55927, 45.46463 ], [ -122.55321, 45.46467 ], [ -122.5532, 45.46107 ], [ -122.57905, 45.46153 ], [ -122.57904, 45.46438 ] ] ] } },
{ "type": "Feature", "properties": { "geoid": "41051000502" }, "geometry": { "type": "Polygon", "coordinates": [ [ [ -122.59839, 45.49033 ], [ -122.57879, 45.49028 ], [ -122.57907, 45.47587 ], [ -122.58935, 45.47589 ], [ -122.58923, 45.48652 ], [ -122.59839, 45.49033 ] ] ] } },
{ "type": "Feature", "properties": { "geoid": "41051001202" }, "geometry": { "type": "Polygon", "coordinates": [ [ [ -122.64937, 45.5122 ], [ -122.63477, 45.51207 ], [ -122.63465, 45.5048 ], [ -122.64943, 45.50484 ], [ -122.64993, 45.50863 ], [ -122.64937, 45.5122 ] ] ] } },
{ "type": "Feature", "properties": { "geoid": "41051002203" }, "geometry": { "type": "Polygon", "coordinates": [ [ [ -122.67677, 45.5437 ], [ -122.67881, 45.54802 ], [ -122.67804, 45.54784 ], [ -122.67556, 45.54784 ], [ -122.6733, 45.54824 ], [ -122.65859, 45.54827 ], [ -122.65857, 45.546 ], [ -122.65752, 45.54521 ], [ -122.65756, 45.53901 ], [ -122.66162, 45.53871 ], [ -122.66669, 45.53901 ], [ -122.66668, 45.54102 ], [ -122.67923, 45.54111 ], [ -122.67793, 45.54213 ], [ -122.67677, 45.5437 ] ] ] } },
{ "type": "Feature", "properties": { "geoid": "41051002501" }, "geometry": { "type": "Polygon", "coordinates": [ [ [ -122.64734, 45.53897 ], [ -122.64727, 45.54824 ], [ -122.63069, 45.54826 ], [ -122.63067, 45.53897 ], [ -122.64734, 45.53897 ] ] ] } },
{ "type": "Feature", "properties": { "geoid": "41051006002" }, "geometry": { "type": "Polygon", "coordinates": [ [ [ -122.69349, 45.47873 ], [ -122.68874, 45.48026 ], [ -122.68281, 45.47991 ], [ -122.68022, 45.48033 ], [ -122.67943, 45.47282 ], [ -122.67763, 45.47273 ], [ -122.67756, 45.47121 ], [ -122.67875, 45.47004 ], [ -122.6794, 45.46976 ], [ -122.68589, 45.4704 ], [ -122.68809, 45.47027 ], [ -122.69316, 45.47086 ], [ -122.6946, 45.4725 ], [ -122.69656, 45.47605 ], [ -122.69828, 45.47783 ], [ -122.69349, 45.47873 ] ] ] } },
{ "type": "Feature", "properties": { "geoid": "41051000201" }, "geometry": { "type": "Polygon", "coordinates": [ [ [ -122.63951, 45.47428 ], [ -122.63656, 45.46149 ], [ -122.64158, 45.46148 ], [ -122.64136, 45.45872 ], [ -122.64696, 45.4587 ], [ -122.6472, 45.46574 ], [ -122.64811, 45.4686 ], [ -122.64873, 45.47373 ], [ -122.63951, 45.47428 ] ] ] } },
{ "type": "Feature", "properties": { "geoid": "41051005701" }, "geometry": { "type": "GeometryCollection", "geometries": [ { "type": "Polygon", "coordinates": [ [ [ -122.67984, 45.50575 ], [ -122.6736, 45.50542 ], [ -122.66856, 45.50828 ], [ -122.66512, 45.50293 ], [ -122.6651, 45.50118 ], [ -122.67524, 45.50039 ], [ -122.67159, 45.50071 ], [ -122.67541, 45.5004 ], [ -122.67876, 45.50068 ], [ -122.68092, 45.50086 ], [ -122.68203, 45.50301 ], [ -122.68199, 45.50642 ], [ -122.67984, 45.50575 ] ] ] }, { "type": "MultiLineString", "coordinates": [ [ [ -122.67876, 45.50068 ], [ -122.6787, 45.50086 ] ], [ [ -122.66537, 45.50216 ], [ -122.66537, 45.50215 ] ], [ [ -122.66537, 45.50215 ], [ -122.66537, 45.50197 ] ] ] } ] } },
{ "type": "Feature", "properties": { "geoid": "41051000202" }, "geometry": { "type": "Polygon", "coordinates": [ [ [ -122.65115, 45.49033 ], [ -122.64352, 45.49032 ], [ -122.63951, 45.47428 ], [ -122.64873, 45.47373 ], [ -122.64965, 45.48167 ], [ -122.6496, 45.4854 ], [ -122.65115, 45.49033 ] ] ] } },
{ "type": "Feature", "properties": { "geoid": "41051005902" }, "geometry": { "type": "GeometryCollection", "geometries": [ { "type": "Polygon", "coordinates": [ [ [ -122.67297, 45.50057 ], [ -122.66542, 45.50116 ], [ -122.6651, 45.50118 ], [ -122.66545, 45.49791 ], [ -122.66851, 45.48963 ], [ -122.66887, 45.48662 ], [ -122.67277, 45.48678 ], [ -122.67239, 45.48987 ], [ -122.67373, 45.48991 ], [ -122.673, 45.49158 ], [ -122.67355, 45.49282 ], [ -122.67297, 45.50057 ] ] ] }, { "type": "LineString", "coordinates": [ [ -122.66542, 45.50116 ], [ -122.66546, 45.50023 ] ] } ] } },
{ "type": "Feature", "properties": { "geoid": "41051001704" }, "geometry": { "type": "Polygon", "coordinates": [ [ [ -122.59448, 45.52647 ], [ -122.57904, 45.52642 ], [ -122.57905, 45.51913 ], [ -122.58685, 45.51935 ], [ -122.58814, 45.5204 ], [ -122.59373, 45.52313 ], [ -122.59436, 45.52414 ], [ -122.59448, 45.52647 ] ] ] } },
{ "type": "Feature", "properties": { "geoid": "41051001101" }, "geometry": { "type": "Polygon", "coordinates": [ [ [ -122.66529, 45.51728 ], [ -122.66557, 45.51923 ], [ -122.64957, 45.51933 ], [ -122.6496, 45.5122 ], [ -122.66281, 45.51224 ], [ -122.66276, 45.50842 ], [ -122.66188, 45.50662 ], [ -122.66151, 45.5023 ], [ -122.66108, 45.5015 ], [ -122.6651, 45.50118 ], [ -122.66512, 45.50293 ], [ -122.66856, 45.50828 ], [ -122.67042, 45.51307 ], [ -122.66865, 45.51759 ], [ -122.66529, 45.51728 ] ] ] } },
{ "type": "Feature", "properties": { "geoid": "41051005500" }, "geometry": { "type": "Polygon", "coordinates": [ [ [ -122.69363, 45.51556 ], [ -122.69236, 45.51791 ], [ -122.68631, 45.51656 ], [ -122.68901, 45.51168 ], [ -122.68838, 45.50916 ], [ -122.69356, 45.51163 ], [ -122.69549, 45.51215 ], [ -122.69675, 45.5158 ], [ -122.69363, 45.51556 ] ] ] } },
{ "type": "Feature", "properties": { "geoid": "41051003502" }, "geometry": { "type": "Polygon", "coordinates": [ [ [ -122.69423, 45.556 ], [ -122.67871, 45.55608 ], [ -122.67751, 45.55559 ], [ -122.67545, 45.55549 ], [ -122.67556, 45.54784 ], [ -122.67804, 45.54784 ], [ -122.67881, 45.54802 ], [ -122.67677, 45.5437 ], [ -122.67793, 45.54213 ], [ -122.67791, 45.54358 ], [ -122.68203, 45.54576 ], [ -122.69121, 45.55237 ], [ -122.69423, 45.556 ] ] ] } },
{ "type": "Feature", "properties": { "geoid": "41051001500" }, "geometry": { "type": "Polygon", "coordinates": [ [ [ -122.61257, 45.51656 ], [ -122.60199, 45.51677 ], [ -122.60167, 45.50536 ], [ -122.61112, 45.5053 ], [ -122.61149, 45.51201 ], [ -122.61236, 45.51202 ], [ -122.61257, 45.51656 ] ] ] } },
{ "type": "Feature", "properties": { "geoid": "41051002901" }, "geometry": { "type": "Polygon", "coordinates": [ [ [ -122.60448, 45.5511 ], [ -122.60085, 45.55545 ], [ -122.57862, 45.55543 ], [ -122.57867, 45.55243 ], [ -122.5994, 45.54425 ], [ -122.59937, 45.54822 ], [ -122.60454, 45.54824 ], [ -122.60448, 45.5511 ] ] ] } },
{ "type": "Feature", "properties": { "geoid": "41051003603" }, "geometry": { "type": "Polygon", "coordinates": [ [ [ -122.63065, 45.57274 ], [ -122.61868, 45.57042 ], [ -122.61984, 45.5697 ], [ -122.62041, 45.56859 ], [ -122.62042, 45.5628 ], [ -122.63066, 45.56272 ], [ -122.63065, 45.57274 ] ] ] } },
{ "type": "Feature", "properties": { "geoid": "41051001302" }, "geometry": { "type": "Polygon", "coordinates": [ [ [ -122.63477, 45.51207 ], [ -122.62282, 45.51204 ], [ -122.62266, 45.5048 ], [ -122.63465, 45.5048 ], [ -122.63477, 45.51207 ] ] ] } },
{ "type": "Feature", "properties": { "geoid": "41051001204" }, "geometry": { "type": "Polygon", "coordinates": [ [ [ -122.64957, 45.51933 ], [ -122.63483, 45.51931 ], [ -122.63478, 45.51502 ], [ -122.6496, 45.51505 ], [ -122.64957, 45.51933 ] ] ] } },
{ "type": "Feature", "properties": { "geoid": "41051004003" }, "geometry": { "type": "Polygon", "coordinates": [ [ [ -122.73589, 45.58634 ], [ -122.72411, 45.59599 ], [ -122.71668, 45.59384 ], [ -122.71654, 45.59258 ], [ -122.71432, 45.59156 ], [ -122.71347, 45.58663 ], [ -122.71454, 45.58663 ], [ -122.71457, 45.57899 ], [ -122.73231, 45.58548 ], [ -122.73589, 45.58634 ] ] ] } },
{ "type": "Feature", "properties": { "geoid": "41051005202" }, "geometry": { "type": "Polygon", "coordinates": [ [ [ -122.69819, 45.52343 ], [ -122.68922, 45.52297 ], [ -122.69013, 45.52216 ], [ -122.69274, 45.51801 ], [ -122.69784, 45.51923 ], [ -122.69822, 45.51984 ], [ -122.69819, 45.52343 ] ] ] } },
{ "type": "Feature", "properties": { "geoid": "41051006602" }, "geometry": { "type": "Polygon", "coordinates": [ [ [ -122.72314, 45.47624 ], [ -122.69656, 45.47605 ], [ -122.6946, 45.4725 ], [ -122.69316, 45.47086 ], [ -122.68809, 45.47027 ], [ -122.69012, 45.46959 ], [ -122.69326, 45.46687 ], [ -122.69573, 45.46557 ], [ -122.69734, 45.46504 ], [ -122.69902, 45.46501 ], [ -122.7147, 45.46739 ], [ -122.72317, 45.46746 ], [ -122.72314, 45.47624 ] ] ] } },
{ "type": "Feature", "properties": { "geoid": "41051000601" }, "geometry": { "type": "Polygon", "coordinates": [ [ [ -122.57879, 45.49028 ], [ -122.55576, 45.48979 ], [ -122.55576, 45.488 ], [ -122.55831, 45.48799 ], [ -122.55828, 45.48368 ], [ -122.5558, 45.48375 ], [ -122.55708, 45.48258 ], [ -122.5574, 45.47836 ], [ -122.55831, 45.47836 ], [ -122.55833, 45.47699 ], [ -122.55742, 45.4768 ], [ -122.56026, 45.47737 ], [ -122.57895, 45.4828 ], [ -122.57879, 45.49028 ] ] ] } },
{ "type": "Feature", "properties": { "geoid": "41051002701" }, "geometry": { "type": "GeometryCollection", "geometries": [ { "type": "Polygon", "coordinates": [ [ [ -122.62294, 45.54377 ], [ -122.62106, 45.54517 ], [ -122.62079, 45.5483 ], [ -122.61064, 45.54827 ], [ -122.61092, 45.53903 ], [ -122.61485, 45.53904 ], [ -122.62297, 45.53904 ], [ -122.62294, 45.54377 ] ], [ [ -122.61292, 45.54175 ], [ -122.61315, 45.54175 ], [ -122.61335, 45.54174 ], [ -122.61292, 45.54175 ] ] ] }, { "type": "LineString", "coordinates": [ [ -122.61485, 45.53904 ], [ -122.61484, 45.5416 ] ] } ] } },
{ "type": "Feature", "properties": { "geoid": "41051003302" }, "geometry": { "type": "Polygon", "coordinates": [ [ [ -122.66154, 45.5555 ], [ -122.64991, 45.55546 ], [ -122.65033, 45.555 ], [ -122.6504, 45.54824 ], [ -122.66159, 45.54827 ], [ -122.66154, 45.5555 ] ] ] } },
{ "type": "Feature", "properties": { "geoid": "41051006100" }, "geometry": { "type": "GeometryCollection", "geometries": [ { "type": "Polygon", "coordinates": [ [ [ -122.70642, 45.4946 ], [ -122.70437, 45.49464 ], [ -122.70254, 45.49221 ], [ -122.70079, 45.49245 ], [ -122.69817, 45.48909 ], [ -122.69454, 45.48731 ], [ -122.69228, 45.48555 ], [ -122.6899, 45.48545 ], [ -122.69021, 45.48422 ], [ -122.6877, 45.48395 ], [ -122.68869, 45.48336 ], [ -122.69085, 45.4827 ], [ -122.69233, 45.48133 ], [ -122.69265, 45.47901 ], [ -122.69828, 45.47783 ], [ -122.70138, 45.47964 ], [ -122.70775, 45.48157 ], [ -122.70828, 45.48382 ], [ -122.70789, 45.48479 ], [ -122.71032, 45.48518 ], [ -122.71034, 45.49059 ], [ -122.70265, 45.49052 ], [ -122.70642, 45.4946 ] ], [ [ -122.70063, 45.4913 ], [ -122.70058, 45.49126 ], [ -122.70049, 45.49123 ], [ -122.70063, 45.4913 ] ], [ [ -122.70434, 45.49433 ], [ -122.70434, 45.49436 ], [ -122.70441, 45.49413 ], [ -122.70434, 45.49433 ] ], [ [ -122.70559, 45.49459 ], [ -122.70601, 45.49458 ], [ -122.706, 45.49458 ], [ -122.70559, 45.49459 ] ] ] }, { "type": "Point", "coordinates": [ -122.70435, 45.49446 ] } ] } },
{ "type": "Feature", "properties": { "geoid": "41051001000" }, "geometry": { "type": "Polygon", "coordinates": [ [ [ -122.6618, 45.50489 ], [ -122.6396, 45.50481 ], [ -122.63957, 45.4903 ], [ -122.65486, 45.49042 ], [ -122.65508, 45.48999 ], [ -122.65727, 45.49131 ], [ -122.65889, 45.49362 ], [ -122.66151, 45.5023 ], [ -122.6618, 45.50489 ] ] ] } },
{ "type": "Feature", "properties": { "geoid": "41051000602" }, "geometry": { "type": "Polygon", "coordinates": [ [ [ -122.57904, 45.46438 ], [ -122.57895, 45.4828 ], [ -122.56026, 45.47737 ], [ -122.55579, 45.47649 ], [ -122.55964, 45.47563 ], [ -122.56356, 45.47388 ], [ -122.57904, 45.46438 ] ] ] } },
{ "type": "Feature", "properties": { "geoid": "41051002002" }, "geometry": { "type": "Polygon", "coordinates": [ [ [ -122.64553, 45.51932 ], [ -122.64545, 45.52928 ], [ -122.64485, 45.53006 ], [ -122.6371, 45.53043 ], [ -122.63733, 45.51931 ], [ -122.64553, 45.51932 ] ] ] } },
{ "type": "Feature", "properties": { "geoid": "41051002401" }, "geometry": { "type": "Polygon", "coordinates": [ [ [ -122.65859, 45.54827 ], [ -122.64727, 45.54824 ], [ -122.64734, 45.53897 ], [ -122.65756, 45.53901 ], [ -122.65752, 45.54521 ], [ -122.65857, 45.546 ], [ -122.65859, 45.54827 ] ] ] } },
{ "type": "Feature", "properties": { "geoid": "41051003602" }, "geometry": { "type": "Polygon", "coordinates": [ [ [ -122.65176, 45.57831 ], [ -122.63124, 45.57368 ], [ -122.63065, 45.5732 ], [ -122.63066, 45.56272 ], [ -122.65008, 45.56272 ], [ -122.65011, 45.57721 ], [ -122.65176, 45.57831 ] ] ] } },
{ "type": "Feature", "properties": { "geoid": "41051004002" }, "geometry": { "type": "GeometryCollection", "geometries": [ { "type": "Polygon", "coordinates": [ [ [ -122.73231, 45.58548 ], [ -122.71457, 45.57899 ], [ -122.71351, 45.57712 ], [ -122.7135, 45.5753 ], [ -122.71853, 45.57456 ], [ -122.72201, 45.57309 ], [ -122.72327, 45.57101 ], [ -122.73018, 45.56522 ], [ -122.73052, 45.56493 ], [ -122.7362, 45.56854 ], [ -122.73759, 45.57154 ], [ -122.73894, 45.57211 ], [ -122.74708, 45.577 ], [ -122.73589, 45.58634 ], [ -122.73231, 45.58548 ] ] ] }, { "type": "LineString", "coordinates": [ [ -122.73018, 45.56522 ], [ -122.73548, 45.5698 ] ] } ] } },
{ "type": "Feature", "properties": { "geoid": "41051004700" }, "geometry": { "type": "Polygon", "coordinates": [ [ [ -122.7125, 45.53553 ], [ -122.7111, 45.53527 ], [ -122.70085, 45.53545 ], [ -122.70074, 45.5326 ], [ -122.69869, 45.53193 ], [ -122.69853, 45.52765 ], [ -122.6965, 45.52769 ], [ -122.69633, 45.52332 ], [ -122.70001, 45.5237 ], [ -122.69943, 45.52439 ], [ -122.70368, 45.5297 ], [ -122.70933, 45.533 ], [ -122.71422, 45.5321 ], [ -122.71266, 45.53348 ], [ -122.7125, 45.53553 ] ] ] } },
{ "type": "Feature", "properties": { "geoid": "41051003702" }, "geometry": { "type": "Polygon", "coordinates": [ [ [ -122.67487, 45.56992 ], [ -122.66138, 45.56998 ], [ -122.66143, 45.56274 ], [ -122.67497, 45.56268 ], [ -122.67487, 45.56992 ] ] ] } },
{ "type": "Feature", "properties": { "geoid": "41051004500" }, "geometry": { "type": "Polygon", "coordinates": [ [ [ -122.72001, 45.54108 ], [ -122.71981, 45.54194 ], [ -122.71643, 45.53882 ], [ -122.7111, 45.53854 ], [ -122.70572, 45.54011 ], [ -122.69657, 45.54125 ], [ -122.692, 45.54487 ], [ -122.68327, 45.53792 ], [ -122.68593, 45.53563 ], [ -122.68642, 45.53578 ], [ -122.7111, 45.53527 ], [ -122.7125, 45.53553 ], [ -122.71518, 45.53341 ], [ -122.71827, 45.53325 ], [ -122.71968, 45.53771 ], [ -122.72391, 45.53979 ], [ -122.72671, 45.53833 ], [ -122.72516, 45.53987 ], [ -122.72001, 45.54108 ] ] ] } },
{ "type": "Feature", "properties": { "geoid": "41051004800" }, "geometry": { "type": "Polygon", "coordinates": [ [ [ -122.69663, 45.53125 ], [ -122.69661, 45.53054 ], [ -122.69458, 45.53058 ], [ -122.69455, 45.52986 ], [ -122.69252, 45.5299 ], [ -122.69227, 45.52312 ], [ -122.69633, 45.52332 ], [ -122.6965, 45.52769 ], [ -122.69853, 45.52765 ], [ -122.69866, 45.53122 ], [ -122.69663, 45.53125 ] ] ] } },
{ "type": "Feature", "properties": { "geoid": "41051006502" }, "geometry": { "type": "Polygon", "coordinates": [ [ [ -122.72317, 45.46746 ], [ -122.7147, 45.46739 ], [ -122.69902, 45.46501 ], [ -122.69734, 45.46504 ], [ -122.69573, 45.46557 ], [ -122.69326, 45.46687 ], [ -122.71628, 45.45406 ], [ -122.71961, 45.45353 ], [ -122.72108, 45.45362 ], [ -122.72041, 45.45465 ], [ -122.72102, 45.45469 ], [ -122.72109, 45.4572 ], [ -122.72325, 45.45824 ], [ -122.72326, 45.45995 ], [ -122.7257, 45.46031 ], [ -122.72342, 45.46239 ], [ -122.72317, 45.46746 ] ] ] } },
{ "type": "Feature", "properties": { "geoid": "41051007600" }, "geometry": { "type": "Polygon", "coordinates": [ [ [ -122.59065, 45.56666 ], [ -122.57771, 45.56438 ], [ -122.57765, 45.56269 ], [ -122.57828, 45.56269 ], [ -122.57862, 45.55543 ], [ -122.60085, 45.55545 ], [ -122.59065, 45.56666 ] ] ] } },
{ "type": "Feature", "properties": { "geoid": "41051008301" }, "geometry": { "type": "Polygon", "coordinates": [ [ [ -122.57879, 45.49028 ], [ -122.57868, 45.50482 ], [ -122.56546, 45.50442 ], [ -122.56555, 45.49481 ], [ -122.56609, 45.48998 ], [ -122.57879, 45.49028 ] ] ] } },
{ "type": "Feature", "properties": { "geoid": "41051008700" }, "geometry": { "type": "Polygon", "coordinates": [ [ [ -122.61546, 45.4763 ], [ -122.6114, 45.47629 ], [ -122.61141, 45.47584 ], [ -122.58935, 45.47589 ], [ -122.58935, 45.46865 ], [ -122.61001, 45.46864 ], [ -122.61002, 45.46761 ], [ -122.61597, 45.46942 ], [ -122.61604, 45.47468 ], [ -122.61546, 45.4763 ] ] ] } },
{ "type": "Feature", "properties": { "geoid": "41051006802" }, "geometry": { "type": "GeometryCollection", "geometries": [ { "type": "MultiPolygon", "coordinates": [ [ [ [ -122.72613, 45.49764 ], [ -122.72689, 45.49817 ], [ -122.72508, 45.49824 ], [ -122.72211, 45.49916 ], [ -122.71937, 45.49923 ], [ -122.72055, 45.49897 ], [ -122.71961, 45.49914 ], [ -122.71626, 45.50022 ], [ -122.71491, 45.50097 ], [ -122.71361, 45.50187 ], [ -122.71299, 45.50161 ], [ -122.71225, 45.50035 ], [ -122.71299, 45.49821 ], [ -122.71161, 45.49621 ], [ -122.71214, 45.49501 ], [ -122.71067, 45.49295 ], [ -122.71034, 45.49059 ], [ -122.71032, 45.48518 ], [ -122.70789, 45.48479 ], [ -122.70828, 45.48382 ], [ -122.70775, 45.48157 ], [ -122.71018, 45.48181 ], [ -122.71647, 45.48447 ], [ -122.71991, 45.48545 ], [ -122.72323, 45.48579 ], [ -122.72757, 45.48688 ], [ -122.73162, 45.48703 ], [ -122.73037, 45.48826 ], [ -122.72656, 45.49485 ], [ -122.72613, 45.49764 ] ] ], [ [ [ -122.71563, 45.50061 ], [ -122.71425, 45.50147 ], [ -122.71492, 45.50097 ], [ -122.71563, 45.50061 ] ] ] ] }, { "type": "MultiLineString", "coordinates": [ [ [ -122.72559, 45.49821 ], [ -122.72561, 45.49821 ] ], [ [ -122.72561, 45.49821 ], [ -122.72563, 45.49821 ] ] ] } ] } },
{ "type": "Feature", "properties": { "geoid": "41051006801" }, "geometry": { "type": "Polygon", "coordinates": [ [ [ -122.74323, 45.49442 ], [ -122.74229, 45.49587 ], [ -122.7398, 45.49782 ], [ -122.7306, 45.49794 ], [ -122.72972, 45.4984 ], [ -122.7291, 45.49793 ], [ -122.72689, 45.49817 ], [ -122.72613, 45.49764 ], [ -122.72656, 45.49485 ], [ -122.73037, 45.48826 ], [ -122.73162, 45.48703 ], [ -122.74375, 45.48708 ], [ -122.7438, 45.4944 ], [ -122.74323, 45.49442 ] ] ] } },
{ "type": "Feature", "properties": { "geoid": "41051000302" }, "geometry": { "type": "Polygon", "coordinates": [ [ [ -122.63951, 45.47428 ], [ -122.63444, 45.47484 ], [ -122.63437, 45.47882 ], [ -122.62823, 45.47929 ], [ -122.61747, 45.47918 ], [ -122.61647, 45.4763 ], [ -122.61546, 45.4763 ], [ -122.61604, 45.47468 ], [ -122.61585, 45.46255 ], [ -122.61656, 45.46205 ], [ -122.61538, 45.46149 ], [ -122.63656, 45.46149 ], [ -122.63951, 45.47428 ] ] ] } },
{ "type": "Feature", "properties": { "geoid": "41051000501" }, "geometry": { "type": "Polygon", "coordinates": [ [ [ -122.59966, 45.47582 ], [ -122.59955, 45.48542 ], [ -122.59898, 45.49026 ], [ -122.59839, 45.49033 ], [ -122.58923, 45.48652 ], [ -122.58935, 45.47589 ], [ -122.59966, 45.47582 ] ] ] } },
{ "type": "Feature", "properties": { "geoid": "41051001601" }, "geometry": { "type": "Polygon", "coordinates": [ [ [ -122.60199, 45.51677 ], [ -122.60024, 45.51675 ], [ -122.60023, 45.51925 ], [ -122.59843, 45.51925 ], [ -122.5949, 45.52217 ], [ -122.5919, 45.5221 ], [ -122.58814, 45.5204 ], [ -122.58685, 45.51935 ], [ -122.57905, 45.51913 ], [ -122.57868, 45.50482 ], [ -122.5822, 45.50538 ], [ -122.60167, 45.50536 ], [ -122.60199, 45.51677 ] ] ] } },
{ "type": "Feature", "properties": { "geoid": "41051001702" }, "geometry": { "type": "Polygon", "coordinates": [ [ [ -122.57905, 45.51913 ], [ -122.57904, 45.53375 ], [ -122.57351, 45.53208 ], [ -122.56892, 45.53198 ], [ -122.56896, 45.53122 ], [ -122.56845, 45.53099 ], [ -122.56859, 45.52259 ], [ -122.56736, 45.52259 ], [ -122.5674, 45.52028 ], [ -122.56862, 45.52012 ], [ -122.56864, 45.51907 ], [ -122.57905, 45.51913 ] ] ] } },
{ "type": "Feature", "properties": { "geoid": "41051001900" }, "geometry": { "type": "Polygon", "coordinates": [ [ [ -122.63151, 45.5272 ], [ -122.63076, 45.52825 ], [ -122.63064, 45.53414 ], [ -122.62923, 45.53438 ], [ -122.61702, 45.53187 ], [ -122.61499, 45.53071 ], [ -122.615, 45.52647 ], [ -122.6173, 45.52642 ], [ -122.61731, 45.51928 ], [ -122.63093, 45.51931 ], [ -122.62988, 45.52212 ], [ -122.63169, 45.52287 ], [ -122.63151, 45.5272 ] ] ] } },
{ "type": "Feature", "properties": { "geoid": "41051002702" }, "geometry": { "type": "GeometryCollection", "geometries": [ { "type": "Polygon", "coordinates": [ [ [ -122.61092, 45.53903 ], [ -122.61093, 45.53373 ], [ -122.61002, 45.53373 ], [ -122.60968, 45.52824 ], [ -122.60885, 45.52765 ], [ -122.61093, 45.52816 ], [ -122.61702, 45.53187 ], [ -122.62293, 45.53321 ], [ -122.62297, 45.53904 ], [ -122.61485, 45.53904 ], [ -122.61092, 45.53903 ] ] ] }, { "type": "LineString", "coordinates": [ [ -122.61485, 45.53904 ], [ -122.61487, 45.53378 ] ] } ] } },
{ "type": "Feature", "properties": { "geoid": "41051000102" }, "geometry": { "type": "Polygon", "coordinates": [ [ [ -122.66851, 45.48963 ], [ -122.66545, 45.49791 ], [ -122.6651, 45.50118 ], [ -122.66108, 45.5015 ], [ -122.65889, 45.49362 ], [ -122.65727, 45.49131 ], [ -122.65508, 45.48999 ], [ -122.65486, 45.49042 ], [ -122.65115, 45.49033 ], [ -122.6496, 45.4854 ], [ -122.64965, 45.48167 ], [ -122.64811, 45.4686 ], [ -122.64704, 45.46432 ], [ -122.66648, 45.46433 ], [ -122.66755, 45.47478 ], [ -122.66915, 45.48424 ], [ -122.66851, 45.48963 ] ] ] } },
{ "type": "Feature", "properties": { "geoid": "41051000101" }, "geometry": { "type": "Polygon", "coordinates": [ [ [ -122.66648, 45.46433 ], [ -122.64704, 45.46432 ], [ -122.64698, 45.45867 ], [ -122.66098, 45.45782 ], [ -122.66245, 45.45923 ], [ -122.66394, 45.4615 ], [ -122.66487, 45.4615 ], [ -122.6653, 45.46198 ], [ -122.66648, 45.46433 ] ] ] } },
{ "type": "Feature", "properties": { "geoid": "41051002001" }, "geometry": { "type": "Polygon", "coordinates": [ [ [ -122.63733, 45.51931 ], [ -122.6371, 45.53043 ], [ -122.63511, 45.53071 ], [ -122.63064, 45.53414 ], [ -122.63076, 45.52825 ], [ -122.63151, 45.5272 ], [ -122.63168, 45.52646 ], [ -122.63169, 45.52287 ], [ -122.62988, 45.52212 ], [ -122.63093, 45.51931 ], [ -122.63733, 45.51931 ] ] ] } },
{ "type": "Feature", "properties": { "geoid": "41051005102" }, "geometry": { "type": "Polygon", "coordinates": [ [ [ -122.6834, 45.53007 ], [ -122.67764, 45.52988 ], [ -122.67741, 45.52304 ], [ -122.68315, 45.52293 ], [ -122.6834, 45.53007 ] ] ] } },
{ "type": "Feature", "properties": { "geoid": "41051001400" }, "geometry": { "type": "Polygon", "coordinates": [ [ [ -122.6178, 45.51928 ], [ -122.61778, 45.51656 ], [ -122.61257, 45.51656 ], [ -122.61236, 45.51202 ], [ -122.61149, 45.51201 ], [ -122.61112, 45.5053 ], [ -122.61712, 45.50528 ], [ -122.61957, 45.5048 ], [ -122.62266, 45.5048 ], [ -122.62301, 45.51929 ], [ -122.6178, 45.51928 ] ] ] } },
{ "type": "Feature", "properties": { "geoid": "41051001602" }, "geometry": { "type": "Polygon", "coordinates": [ [ [ -122.57905, 45.51913 ], [ -122.56864, 45.51907 ], [ -122.56865, 45.5184 ], [ -122.56551, 45.51841 ], [ -122.5655, 45.50755 ], [ -122.56727, 45.50757 ], [ -122.56728, 45.50446 ], [ -122.56546, 45.50442 ], [ -122.57668, 45.50464 ], [ -122.57868, 45.50482 ], [ -122.57905, 45.51913 ] ] ] } },
{ "type": "Feature", "properties": { "geoid": "41051002303" }, "geometry": { "type": "Polygon", "coordinates": [ [ [ -122.68327, 45.53792 ], [ -122.67923, 45.54111 ], [ -122.66668, 45.54102 ], [ -122.66669, 45.53901 ], [ -122.66162, 45.53871 ], [ -122.65756, 45.53901 ], [ -122.65759, 45.53508 ], [ -122.66832, 45.5351 ], [ -122.65759, 45.53507 ], [ -122.6576, 45.53363 ], [ -122.65659, 45.53149 ], [ -122.65656, 45.52864 ], [ -122.65356, 45.52852 ], [ -122.66129, 45.5257 ], [ -122.66379, 45.5261 ], [ -122.66535, 45.52716 ], [ -122.66535, 45.52865 ], [ -122.66684, 45.52858 ], [ -122.669, 45.52763 ], [ -122.67804, 45.53528 ], [ -122.68327, 45.53792 ] ] ] } },
{ "type": "Feature", "properties": { "geoid": "41051002402" }, "geometry": { "type": "MultiPolygon", "coordinates": [ [ [ [ -122.65756, 45.53901 ], [ -122.64734, 45.53897 ], [ -122.64664, 45.53744 ], [ -122.64666, 45.53504 ], [ -122.65759, 45.53508 ], [ -122.65756, 45.53901 ] ] ], [ [ [ -122.64666, 45.53503 ], [ -122.64669, 45.53146 ], [ -122.64485, 45.53006 ], [ -122.64814, 45.52986 ], [ -122.65356, 45.52852 ], [ -122.65656, 45.52864 ], [ -122.65659, 45.53149 ], [ -122.6576, 45.53363 ], [ -122.65759, 45.53507 ], [ -122.64666, 45.53503 ] ] ] ] } },
{ "type": "Feature", "properties": { "geoid": "41051002600" }, "geometry": { "type": "Polygon", "coordinates": [ [ [ -122.63069, 45.54826 ], [ -122.62079, 45.5483 ], [ -122.62106, 45.54517 ], [ -122.62294, 45.54377 ], [ -122.62293, 45.53318 ], [ -122.62923, 45.53438 ], [ -122.63064, 45.53414 ], [ -122.63067, 45.53516 ], [ -122.63069, 45.54826 ] ] ] } },
{ "type": "Feature", "properties": { "geoid": "41051003802" }, "geometry": { "type": "Polygon", "coordinates": [ [ [ -122.69242, 45.57712 ], [ -122.67479, 45.57722 ], [ -122.67487, 45.56992 ], [ -122.69248, 45.56993 ], [ -122.69242, 45.57712 ] ] ] } },
{ "type": "Feature", "properties": { "geoid": "41051003902" }, "geometry": { "type": "Polygon", "coordinates": [ [ [ -122.70972, 45.57729 ], [ -122.69242, 45.57712 ], [ -122.69248, 45.56993 ], [ -122.69453, 45.56993 ], [ -122.6946, 45.56274 ], [ -122.69756, 45.5627 ], [ -122.69707, 45.56543 ], [ -122.69901, 45.56545 ], [ -122.70002, 45.56993 ], [ -122.7018, 45.57236 ], [ -122.70402, 45.57387 ], [ -122.70795, 45.57495 ], [ -122.7135, 45.5753 ], [ -122.71351, 45.57712 ], [ -122.71457, 45.57899 ], [ -122.70972, 45.57729 ] ] ] } },
{ "type": "Feature", "properties": { "geoid": "41051004602" }, "geometry": { "type": "Polygon", "coordinates": [ [ [ -122.71496, 45.50658 ], [ -122.70963, 45.50759 ], [ -122.70673, 45.51091 ], [ -122.70242, 45.513 ], [ -122.69957, 45.51621 ], [ -122.7003, 45.51832 ], [ -122.69991, 45.51922 ], [ -122.69784, 45.51923 ], [ -122.69236, 45.51791 ], [ -122.69363, 45.51556 ], [ -122.69675, 45.5158 ], [ -122.69549, 45.51215 ], [ -122.69356, 45.51163 ], [ -122.69576, 45.50763 ], [ -122.69713, 45.50634 ], [ -122.69726, 45.5058 ], [ -122.69994, 45.50624 ], [ -122.70098, 45.50535 ], [ -122.70586, 45.50509 ], [ -122.70828, 45.50315 ], [ -122.71258, 45.50327 ], [ -122.71322, 45.50218 ], [ -122.71298, 45.50478 ], [ -122.71935, 45.50494 ], [ -122.71935, 45.50735 ], [ -122.71496, 45.50658 ] ] ] } },
{ "type": "Feature", "properties": { "geoid": "41051004601" }, "geometry": { "type": "Polygon", "coordinates": [ [ [ -122.71875, 45.52168 ], [ -122.71972, 45.52298 ], [ -122.71961, 45.52644 ], [ -122.71496, 45.52682 ], [ -122.71498, 45.53013 ], [ -122.71682, 45.53059 ], [ -122.71489, 45.53196 ], [ -122.70933, 45.533 ], [ -122.70368, 45.5297 ], [ -122.69943, 45.52439 ], [ -122.70001, 45.5237 ], [ -122.69819, 45.52343 ], [ -122.69822, 45.51984 ], [ -122.69784, 45.51923 ], [ -122.69991, 45.51922 ], [ -122.7003, 45.51832 ], [ -122.69957, 45.51621 ], [ -122.70242, 45.513 ], [ -122.70673, 45.51091 ], [ -122.70963, 45.50759 ], [ -122.71496, 45.50658 ], [ -122.71935, 45.50735 ], [ -122.71965, 45.51982 ], [ -122.72087, 45.51978 ], [ -122.72089, 45.52044 ], [ -122.71875, 45.52168 ] ] ] } },
{ "type": "Feature", "properties": { "geoid": "41051005800" }, "geometry": { "type": "GeometryCollection", "geometries": [ { "type": "Polygon", "coordinates": [ [ [ -122.70828, 45.50315 ], [ -122.70586, 45.50509 ], [ -122.70098, 45.50535 ], [ -122.69994, 45.50624 ], [ -122.69726, 45.5058 ], [ -122.69713, 45.50634 ], [ -122.69576, 45.50763 ], [ -122.69356, 45.51163 ], [ -122.68838, 45.50916 ], [ -122.68891, 45.51186 ], [ -122.68728, 45.50994 ], [ -122.68199, 45.50642 ], [ -122.68202, 45.50513 ], [ -122.68742, 45.50288 ], [ -122.68392, 45.50292 ], [ -122.68269, 45.49952 ], [ -122.68041, 45.49711 ], [ -122.68238, 45.49525 ], [ -122.68141, 45.49384 ], [ -122.68167, 45.49207 ], [ -122.68401, 45.49151 ], [ -122.68661, 45.49198 ], [ -122.68702, 45.49339 ], [ -122.69149, 45.49592 ], [ -122.69524, 45.49607 ], [ -122.69723, 45.49579 ], [ -122.698, 45.49538 ], [ -122.69584, 45.49347 ], [ -122.69564, 45.48987 ], [ -122.69348, 45.4878 ], [ -122.69454, 45.48731 ], [ -122.69817, 45.48909 ], [ -122.70079, 45.49245 ], [ -122.70254, 45.49221 ], [ -122.70437, 45.49464 ], [ -122.7045, 45.49467 ], [ -122.70642, 45.4946 ], [ -122.70265, 45.49052 ], [ -122.71034, 45.49059 ], [ -122.71067, 45.49295 ], [ -122.71214, 45.49501 ], [ -122.71161, 45.49621 ], [ -122.71299, 45.49821 ], [ -122.71225, 45.50035 ], [ -122.71299, 45.50161 ], [ -122.71361, 45.50187 ], [ -122.71258, 45.50327 ], [ -122.70828, 45.50315 ] ], [ [ -122.70714, 45.49607 ], [ -122.7069, 45.49604 ], [ -122.70626, 45.49603 ], [ -122.70714, 45.49607 ] ], [ [ -122.70808, 45.49622 ], [ -122.70741, 45.4961 ], [ -122.70721, 45.49607 ], [ -122.70808, 45.49622 ] ], [ [ -122.7089, 45.4967 ], [ -122.70864, 45.49647 ], [ -122.70861, 45.49645 ], [ -122.7089, 45.4967 ] ], [ [ -122.71126, 45.50154 ], [ -122.71108, 45.50141 ], [ -122.71118, 45.5015 ], [ -122.71126, 45.50154 ] ] ] }, { "type": "LineString", "coordinates": [ [ -122.70348, 45.49355 ], [ -122.7035, 45.49349 ] ] } ] } },
{ "type": "Feature", "properties": { "geoid": "41051006001" }, "geometry": { "type": "MultiPolygon", "coordinates": [ [ [ [ -122.69524, 45.49607 ], [ -122.69149, 45.49592 ], [ -122.68702, 45.49339 ], [ -122.68661, 45.49198 ], [ -122.68401, 45.49151 ], [ -122.68167, 45.49207 ], [ -122.68141, 45.49384 ], [ -122.68238, 45.49525 ], [ -122.68041, 45.49711 ], [ -122.68269, 45.49952 ], [ -122.68392, 45.50292 ], [ -122.68742, 45.50288 ], [ -122.68202, 45.50513 ], [ -122.68203, 45.50301 ], [ -122.6789, 45.49724 ], [ -122.67699, 45.4925 ], [ -122.67781, 45.49132 ], [ -122.68264, 45.48899 ], [ -122.68252, 45.48676 ], [ -122.68091, 45.48392 ], [ -122.68022, 45.48033 ], [ -122.68281, 45.47991 ], [ -122.68874, 45.48026 ], [ -122.69265, 45.47901 ], [ -122.69233, 45.48133 ], [ -122.69085, 45.4827 ], [ -122.68869, 45.48336 ], [ -122.6877, 45.48395 ], [ -122.69021, 45.48422 ], [ -122.6899, 45.48545 ], [ -122.69228, 45.48555 ], [ -122.69454, 45.48731 ], [ -122.69348, 45.4878 ], [ -122.69564, 45.48987 ], [ -122.69584, 45.49347 ], [ -122.698, 45.49538 ], [ -122.69723, 45.49579 ], [ -122.69524, 45.49607 ] ], [ [ -122.67918, 45.49066 ], [ -122.67985, 45.49051 ], [ -122.67926, 45.49064 ], [ -122.67918, 45.49066 ] ], [ [ -122.68097, 45.49025 ], [ -122.6812, 45.49016 ], [ -122.68056, 45.49034 ], [ -122.68097, 45.49025 ] ], [ [ -122.68141, 45.49009 ], [ -122.68159, 45.48999 ], [ -122.68129, 45.49013 ], [ -122.68141, 45.49009 ] ], [ [ -122.6818, 45.48988 ], [ -122.68224, 45.48952 ], [ -122.68175, 45.4899 ], [ -122.6818, 45.48988 ] ], [ [ -122.6901, 45.49049 ], [ -122.69016, 45.49049 ], [ -122.68471, 45.4904 ], [ -122.6901, 45.49049 ] ] ], [ [ [ -122.67693, 45.49237 ], [ -122.67712, 45.49214 ], [ -122.67698, 45.49248 ], [ -122.67693, 45.49237 ] ] ] ] } },
{ "type": "Feature", "properties": { "geoid": "41051006501" }, "geometry": { "type": "Polygon", "coordinates": [ [ [ -122.7437, 45.44294 ], [ -122.74366, 45.46753 ], [ -122.72317, 45.46746 ], [ -122.72342, 45.46239 ], [ -122.7257, 45.46031 ], [ -122.72326, 45.45995 ], [ -122.72325, 45.45824 ], [ -122.72109, 45.4572 ], [ -122.72102, 45.45469 ], [ -122.72041, 45.45465 ], [ -122.72111, 45.45353 ], [ -122.72429, 45.45338 ], [ -122.72629, 45.45271 ], [ -122.72778, 45.45164 ], [ -122.73109, 45.44711 ], [ -122.73323, 45.44602 ], [ -122.73857, 45.4448 ], [ -122.74267, 45.44311 ], [ -122.7437, 45.44294 ] ] ] } },
{ "type": "Feature", "properties": { "geoid": "41051007201" }, "geometry": { "type": "Polygon", "coordinates": [ [ [ -122.70724, 45.63398 ], [ -122.69101, 45.62474 ], [ -122.68251, 45.62094 ], [ -122.67479, 45.61785 ], [ -122.66786, 45.61525 ], [ -122.6488, 45.60939 ], [ -122.64355, 45.60803 ], [ -122.64254, 45.60316 ], [ -122.64608, 45.60262 ], [ -122.65379, 45.60252 ], [ -122.66421, 45.60348 ], [ -122.67878, 45.60696 ], [ -122.68999, 45.61077 ], [ -122.70923, 45.6181 ], [ -122.7158, 45.62108 ], [ -122.71545, 45.61975 ], [ -122.72432, 45.62392 ], [ -122.72972, 45.62695 ], [ -122.7433, 45.63686 ], [ -122.74321, 45.64557 ], [ -122.73664, 45.64337 ], [ -122.7129, 45.63636 ], [ -122.70724, 45.63398 ] ] ] } },
{ "type": "Feature", "properties": { "geoid": "41051007202" }, "geometry": { "type": "Polygon", "coordinates": [ [ [ -122.72972, 45.62695 ], [ -122.72432, 45.62392 ], [ -122.71545, 45.61975 ], [ -122.7158, 45.62108 ], [ -122.70923, 45.6181 ], [ -122.68999, 45.61077 ], [ -122.67878, 45.60696 ], [ -122.66421, 45.60348 ], [ -122.65379, 45.60252 ], [ -122.64608, 45.60262 ], [ -122.64254, 45.60316 ], [ -122.64273, 45.60098 ], [ -122.64096, 45.59483 ], [ -122.64073, 45.59059 ], [ -122.64396, 45.58734 ], [ -122.64705, 45.58545 ], [ -122.64799, 45.58308 ], [ -122.64572, 45.58186 ], [ -122.63824, 45.57896 ], [ -122.6334, 45.57811 ], [ -122.63356, 45.57426 ], [ -122.65176, 45.57831 ], [ -122.66765, 45.5829 ], [ -122.67434, 45.5839 ], [ -122.68067, 45.58403 ], [ -122.68692, 45.58578 ], [ -122.69226, 45.58697 ], [ -122.69722, 45.5888 ], [ -122.7024, 45.59022 ], [ -122.71869, 45.59435 ], [ -122.72411, 45.59599 ], [ -122.71903, 45.6002 ], [ -122.72152, 45.60102 ], [ -122.72579, 45.60129 ], [ -122.73042, 45.60328 ], [ -122.73646, 45.60403 ], [ -122.74092, 45.60703 ], [ -122.74628, 45.60758 ], [ -122.74956, 45.60929 ], [ -122.75234, 45.60977 ], [ -122.75613, 45.61138 ], [ -122.75862, 45.61296 ], [ -122.76327, 45.61524 ], [ -122.76657, 45.61583 ], [ -122.77911, 45.61718 ], [ -122.78029, 45.61797 ], [ -122.78256, 45.61794 ], [ -122.78834, 45.61487 ], [ -122.78949, 45.61588 ], [ -122.79101, 45.62003 ], [ -122.79105, 45.6242 ], [ -122.7904, 45.62636 ], [ -122.7903, 45.62792 ], [ -122.78884, 45.63132 ], [ -122.78681, 45.63471 ], [ -122.74332, 45.63472 ], [ -122.7433, 45.63686 ], [ -122.72972, 45.62695 ] ], [ [ -122.73601, 45.604 ], [ -122.73598, 45.60398 ], [ -122.73587, 45.60396 ], [ -122.73601, 45.604 ] ], [ [ -122.74719, 45.60812 ], [ -122.74704, 45.60804 ], [ -122.74605, 45.60761 ], [ -122.74719, 45.60812 ] ], [ [ -122.74885, 45.60917 ], [ -122.74838, 45.60896 ], [ -122.74877, 45.60914 ], [ -122.74885, 45.60917 ] ], [ [ -122.74729, 45.60818 ], [ -122.74727, 45.60817 ], [ -122.74838, 45.60896 ], [ -122.74729, 45.60818 ] ], [ [ -122.74946, 45.60934 ], [ -122.74958, 45.60936 ], [ -122.74921, 45.60927 ], [ -122.74946, 45.60934 ] ] ] } },
{ "type": "Feature", "properties": { "geoid": "41051004300" }, "geometry": { "type": "Polygon", "coordinates": [ [ [ -122.82997, 45.60393 ], [ -122.82348, 45.60563 ], [ -122.82054, 45.6097 ], [ -122.8177, 45.612 ], [ -122.81809, 45.61298 ], [ -122.81609, 45.6153 ], [ -122.81344, 45.61635 ], [ -122.81073, 45.61647 ], [ -122.80899, 45.61738 ], [ -122.80975, 45.619 ], [ -122.80682, 45.61781 ], [ -122.80475, 45.62047 ], [ -122.79933, 45.61915 ], [ -122.7951, 45.61911 ], [ -122.79085, 45.61948 ], [ -122.78949, 45.61588 ], [ -122.78834, 45.61487 ], [ -122.77846, 45.59949 ], [ -122.77184, 45.59181 ], [ -122.76431, 45.58532 ], [ -122.75637, 45.58108 ], [ -122.74708, 45.577 ], [ -122.73894, 45.57211 ], [ -122.73759, 45.57154 ], [ -122.7362, 45.56854 ], [ -122.7227, 45.5603 ], [ -122.7169, 45.55741 ], [ -122.69799, 45.55029 ], [ -122.692, 45.54487 ], [ -122.69657, 45.54125 ], [ -122.70572, 45.54011 ], [ -122.7102, 45.53867 ], [ -122.7111, 45.53854 ], [ -122.71643, 45.53882 ], [ -122.71981, 45.54194 ], [ -122.72001, 45.54108 ], [ -122.72516, 45.53987 ], [ -122.72671, 45.53833 ], [ -122.72688, 45.53852 ], [ -122.72631, 45.53933 ], [ -122.72655, 45.53973 ], [ -122.72618, 45.54044 ], [ -122.72715, 45.54299 ], [ -122.72671, 45.54395 ], [ -122.72901, 45.54652 ], [ -122.7321, 45.54611 ], [ -122.735, 45.54479 ], [ -122.7337, 45.54711 ], [ -122.73533, 45.54765 ], [ -122.73307, 45.54816 ], [ -122.73348, 45.54916 ], [ -122.7354, 45.54968 ], [ -122.73698, 45.55129 ], [ -122.73931, 45.55468 ], [ -122.74136, 45.55516 ], [ -122.74416, 45.55733 ], [ -122.74855, 45.55769 ], [ -122.7507, 45.55608 ], [ -122.75218, 45.55368 ], [ -122.75318, 45.553 ], [ -122.75282, 45.5566 ], [ -122.75489, 45.55619 ], [ -122.75719, 45.55459 ], [ -122.75572, 45.5574 ], [ -122.75771, 45.55809 ], [ -122.76099, 45.55776 ], [ -122.76059, 45.55862 ], [ -122.76358, 45.55887 ], [ -122.76026, 45.5603 ], [ -122.75963, 45.56122 ], [ -122.76311, 45.56195 ], [ -122.76532, 45.56144 ], [ -122.78471, 45.56554 ], [ -122.78962, 45.56571 ], [ -122.79054, 45.56785 ], [ -122.78984, 45.57055 ], [ -122.79114, 45.57258 ], [ -122.79443, 45.57324 ], [ -122.79424, 45.57673 ], [ -122.79644, 45.57958 ], [ -122.79817, 45.58063 ], [ -122.79945, 45.58299 ], [ -122.80513, 45.58621 ], [ -122.80577, 45.58808 ], [ -122.81209, 45.58997 ], [ -122.81356, 45.59206 ], [ -122.81885, 45.59437 ], [ -122.82013, 45.59569 ], [ -122.82548, 45.59646 ], [ -122.82645, 45.59724 ], [ -122.82645, 45.59928 ], [ -122.82748, 45.59993 ], [ -122.83213, 45.59975 ], [ -122.8327, 45.60049 ], [ -122.83278, 45.60353 ], [ -122.83337, 45.60565 ], [ -122.82997, 45.60393 ] ], [ [ -122.7853, 45.60935 ], [ -122.78255, 45.60466 ], [ -122.78305, 45.60551 ], [ -122.7853, 45.60935 ] ] ] } },
{ "type": "Feature", "properties": { "geoid": "41051006900" }, "geometry": { "type": "Polygon", "coordinates": [ [ [ -122.74132, 45.51829 ], [ -122.73716, 45.51955 ], [ -122.73173, 45.5187 ], [ -122.72696, 45.5198 ], [ -122.72267, 45.51903 ], [ -122.72089, 45.52044 ], [ -122.72087, 45.51978 ], [ -122.71965, 45.51982 ], [ -122.71935, 45.50494 ], [ -122.71298, 45.50478 ], [ -122.71322, 45.50218 ], [ -122.71684, 45.50006 ], [ -122.71571, 45.50056 ], [ -122.71626, 45.50022 ], [ -122.71924, 45.49924 ], [ -122.71906, 45.49934 ], [ -122.72211, 45.49916 ], [ -122.72413, 45.49849 ], [ -122.72289, 45.499 ], [ -122.72246, 45.49921 ], [ -122.72508, 45.49824 ], [ -122.72703, 45.49816 ], [ -122.72646, 45.49829 ], [ -122.7291, 45.49793 ], [ -122.72972, 45.4984 ], [ -122.7306, 45.49794 ], [ -122.7398, 45.49782 ], [ -122.74229, 45.49587 ], [ -122.74323, 45.49442 ], [ -122.7438, 45.4944 ], [ -122.74385, 45.51667 ], [ -122.74132, 45.51829 ] ], [ [ -122.71838, 45.49973 ], [ -122.71778, 45.50031 ], [ -122.71883, 45.49947 ], [ -122.71838, 45.49973 ] ] ] } },
{ "type": "Feature", "properties": { "geoid": "41051000301" }, "geometry": { "type": "Polygon", "coordinates": [ [ [ -122.64352, 45.49032 ], [ -122.63464, 45.49031 ], [ -122.63081, 45.4906 ], [ -122.62977, 45.49032 ], [ -122.61948, 45.4903 ], [ -122.62056, 45.48755 ], [ -122.62059, 45.47919 ], [ -122.62823, 45.47929 ], [ -122.63437, 45.47882 ], [ -122.63444, 45.47484 ], [ -122.63951, 45.47428 ], [ -122.64352, 45.49032 ] ] ] } },
{ "type": "Feature", "properties": { "geoid": "41051000401" }, "geometry": { "type": "Polygon", "coordinates": [ [ [ -122.62059, 45.47919 ], [ -122.62056, 45.48755 ], [ -122.61948, 45.4903 ], [ -122.60899, 45.4903 ], [ -122.60873, 45.47583 ], [ -122.61141, 45.47584 ], [ -122.6114, 45.47629 ], [ -122.61647, 45.4763 ], [ -122.61747, 45.47918 ], [ -122.62059, 45.47919 ] ] ] } },
{ "type": "Feature", "properties": { "geoid": "41051000701" }, "geometry": { "type": "Polygon", "coordinates": [ [ [ -122.59944, 45.50539 ], [ -122.5822, 45.50538 ], [ -122.57868, 45.50482 ], [ -122.5787, 45.49741 ], [ -122.59939, 45.49747 ], [ -122.59944, 45.50539 ] ] ] } },
{ "type": "Feature", "properties": { "geoid": "41051000802" }, "geometry": { "type": "Polygon", "coordinates": [ [ [ -122.6226, 45.49734 ], [ -122.61852, 45.49755 ], [ -122.60184, 45.49747 ], [ -122.60196, 45.49219 ], [ -122.59839, 45.49033 ], [ -122.62276, 45.4903 ], [ -122.6226, 45.49734 ] ] ] } },
{ "type": "Feature", "properties": { "geoid": "41051001301" }, "geometry": { "type": "Polygon", "coordinates": [ [ [ -122.63483, 45.51931 ], [ -122.62301, 45.51929 ], [ -122.62282, 45.51204 ], [ -122.63477, 45.51207 ], [ -122.63483, 45.51931 ] ] ] } },
{ "type": "Feature", "properties": { "geoid": "41051002802" }, "geometry": { "type": "Polygon", "coordinates": [ [ [ -122.61093, 45.53373 ], [ -122.61092, 45.53903 ], [ -122.59948, 45.53874 ], [ -122.59957, 45.5337 ], [ -122.59892, 45.5337 ], [ -122.60223, 45.52916 ], [ -122.60519, 45.52793 ], [ -122.60885, 45.52765 ], [ -122.60968, 45.52824 ], [ -122.61002, 45.53373 ], [ -122.61093, 45.53373 ] ] ] } },
{ "type": "Feature", "properties": { "geoid": "41051003000" }, "geometry": { "type": "Polygon", "coordinates": [ [ [ -122.63069, 45.54826 ], [ -122.63066, 45.56272 ], [ -122.62042, 45.5628 ], [ -122.6204, 45.55556 ], [ -122.61488, 45.55553 ], [ -122.61505, 45.54829 ], [ -122.63069, 45.54826 ] ] ] } },
{ "type": "Feature", "properties": { "geoid": "41051003401" }, "geometry": { "type": "Polygon", "coordinates": [ [ [ -122.67494, 45.55688 ], [ -122.67497, 45.56268 ], [ -122.66143, 45.56274 ], [ -122.66154, 45.55457 ], [ -122.67551, 45.55462 ], [ -122.67494, 45.55688 ] ] ] } },
{ "type": "Feature", "properties": { "geoid": "41051003601" }, "geometry": { "type": "Polygon", "coordinates": [ [ [ -122.66143, 45.56274 ], [ -122.66134, 45.58069 ], [ -122.66142, 45.58114 ], [ -122.65176, 45.57831 ], [ -122.65011, 45.57721 ], [ -122.65008, 45.56272 ], [ -122.66143, 45.56274 ] ] ] } },
{ "type": "Feature", "properties": { "geoid": "41051003701" }, "geometry": { "type": "Polygon", "coordinates": [ [ [ -122.67479, 45.57722 ], [ -122.67455, 45.57762 ], [ -122.67434, 45.5839 ], [ -122.66765, 45.5829 ], [ -122.66142, 45.58114 ], [ -122.66138, 45.56998 ], [ -122.67487, 45.56992 ], [ -122.67479, 45.57722 ] ] ] } },
{ "type": "Feature", "properties": { "geoid": "41051001102" }, "geometry": { "type": "Polygon", "coordinates": [ [ [ -122.66281, 45.51224 ], [ -122.64937, 45.5122 ], [ -122.64993, 45.50863 ], [ -122.64943, 45.50484 ], [ -122.6618, 45.50489 ], [ -122.66188, 45.50662 ], [ -122.66276, 45.50842 ], [ -122.66281, 45.51224 ] ] ] } },
{ "type": "Feature", "properties": { "geoid": "41051005903" }, "geometry": { "type": "Polygon", "coordinates": [ [ [ -122.67879, 45.48721 ], [ -122.67546, 45.48995 ], [ -122.67371, 45.49296 ], [ -122.673, 45.49158 ], [ -122.67373, 45.48991 ], [ -122.67239, 45.48987 ], [ -122.67277, 45.48678 ], [ -122.66887, 45.48662 ], [ -122.66915, 45.48424 ], [ -122.66755, 45.47478 ], [ -122.66648, 45.46433 ], [ -122.66885, 45.46431 ], [ -122.66953, 45.4664 ], [ -122.67131, 45.46881 ], [ -122.6715, 45.46948 ], [ -122.67254, 45.46933 ], [ -122.67417, 45.47023 ], [ -122.67696, 45.47302 ], [ -122.67695, 45.47443 ], [ -122.67825, 45.47444 ], [ -122.6789, 45.47657 ], [ -122.67919, 45.48648 ], [ -122.67879, 45.48721 ] ] ] } },
{ "type": "Feature", "properties": { "geoid": "41051004901" }, "geometry": { "type": "Polygon", "coordinates": [ [ [ -122.70085, 45.53545 ], [ -122.69476, 45.53557 ], [ -122.69466, 45.53272 ], [ -122.6906, 45.53279 ], [ -122.6905, 45.52994 ], [ -122.69455, 45.52986 ], [ -122.69458, 45.53058 ], [ -122.69661, 45.53054 ], [ -122.69663, 45.53125 ], [ -122.69866, 45.53122 ], [ -122.69869, 45.53193 ], [ -122.70074, 45.5326 ], [ -122.70085, 45.53545 ] ] ] } },
{ "type": "Feature", "properties": { "geoid": "41051005002" }, "geometry": { "type": "Polygon", "coordinates": [ [ [ -122.69476, 45.53557 ], [ -122.68642, 45.53578 ], [ -122.68593, 45.53563 ], [ -122.68706, 45.53429 ], [ -122.68712, 45.53 ], [ -122.68672, 45.52423 ], [ -122.68593, 45.52289 ], [ -122.68822, 45.52292 ], [ -122.68831, 45.5257 ], [ -122.68938, 45.52711 ], [ -122.68948, 45.52996 ], [ -122.6905, 45.52994 ], [ -122.6906, 45.53279 ], [ -122.69466, 45.53272 ], [ -122.69476, 45.53557 ] ] ] } },
{ "type": "Feature", "properties": { "geoid": "41051003903" }, "geometry": { "type": "Polygon", "coordinates": [ [ [ -122.7024, 45.59022 ], [ -122.70242, 45.58402 ], [ -122.70537, 45.58403 ], [ -122.70539, 45.57713 ], [ -122.70972, 45.57729 ], [ -122.71457, 45.57899 ], [ -122.71454, 45.58663 ], [ -122.71347, 45.58663 ], [ -122.71432, 45.59156 ], [ -122.71654, 45.59258 ], [ -122.71668, 45.59384 ], [ -122.7024, 45.59022 ] ] ] } },
{ "type": "Feature", "properties": { "geoid": "41051005101" }, "geometry": { "type": "Polygon", "coordinates": [ [ [ -122.68327, 45.53792 ], [ -122.67804, 45.53528 ], [ -122.67395, 45.53196 ], [ -122.67439, 45.53216 ], [ -122.67408, 45.53189 ], [ -122.67764, 45.52988 ], [ -122.67987, 45.53012 ], [ -122.6834, 45.53007 ], [ -122.68348, 45.53221 ], [ -122.68553, 45.53288 ], [ -122.68593, 45.53563 ], [ -122.68327, 45.53792 ] ] ] } },
{ "type": "Feature", "properties": { "geoid": "41051002101" }, "geometry": { "type": "Polygon", "coordinates": [ [ [ -122.66684, 45.52858 ], [ -122.66535, 45.52865 ], [ -122.66535, 45.52716 ], [ -122.66379, 45.5261 ], [ -122.66129, 45.5257 ], [ -122.65356, 45.52852 ], [ -122.65363, 45.51934 ], [ -122.66557, 45.51923 ], [ -122.66529, 45.51728 ], [ -122.66865, 45.51759 ], [ -122.66709, 45.52303 ], [ -122.66779, 45.52677 ], [ -122.669, 45.52763 ], [ -122.66684, 45.52858 ] ] ] } },
{ "type": "Feature", "properties": { "geoid": "41051001703" }, "geometry": { "type": "Polygon", "coordinates": [ [ [ -122.59643, 45.53047 ], [ -122.5944, 45.5304 ], [ -122.59239, 45.53335 ], [ -122.59353, 45.53364 ], [ -122.5892, 45.53557 ], [ -122.58717, 45.53586 ], [ -122.58554, 45.53583 ], [ -122.57904, 45.53375 ], [ -122.57904, 45.52642 ], [ -122.59862, 45.52648 ], [ -122.59648, 45.52827 ], [ -122.59643, 45.53047 ] ] ] } },
{ "type": "Feature", "properties": { "geoid": "41051005201" }, "geometry": { "type": "Polygon", "coordinates": [ [ [ -122.69274, 45.51801 ], [ -122.69013, 45.52216 ], [ -122.68922, 45.52297 ], [ -122.68315, 45.52293 ], [ -122.6831, 45.52248 ], [ -122.68631, 45.51656 ], [ -122.69274, 45.51801 ] ] ] } },
{ "type": "Feature", "properties": { "geoid": "41051002102" }, "geometry": { "type": "Polygon", "coordinates": [ [ [ -122.65363, 45.51934 ], [ -122.65356, 45.52852 ], [ -122.64814, 45.52986 ], [ -122.64485, 45.53006 ], [ -122.64545, 45.52928 ], [ -122.64553, 45.51932 ], [ -122.65363, 45.51934 ] ] ] } },
{ "type": "Feature", "properties": { "geoid": "41051005001" }, "geometry": { "type": "Polygon", "coordinates": [ [ [ -122.68593, 45.53563 ], [ -122.68553, 45.53288 ], [ -122.68348, 45.53221 ], [ -122.68315, 45.52293 ], [ -122.68593, 45.52289 ], [ -122.68672, 45.52423 ], [ -122.68712, 45.53 ], [ -122.68706, 45.53429 ], [ -122.68593, 45.53563 ] ] ] } },
{ "type": "Feature", "properties": { "geoid": "41051005602" }, "geometry": { "type": "Polygon", "coordinates": [ [ [ -122.6874, 45.51455 ], [ -122.67979, 45.51252 ], [ -122.68175, 45.50892 ], [ -122.68199, 45.50642 ], [ -122.68728, 45.50994 ], [ -122.68891, 45.51186 ], [ -122.6874, 45.51455 ] ] ] } },
{ "type": "Feature", "properties": { "geoid": "41051004103" }, "geometry": { "type": "Polygon", "coordinates": [ [ [ -122.75862, 45.61296 ], [ -122.75613, 45.61138 ], [ -122.75234, 45.60977 ], [ -122.74956, 45.60929 ], [ -122.74628, 45.60758 ], [ -122.74092, 45.60703 ], [ -122.73646, 45.60403 ], [ -122.73042, 45.60328 ], [ -122.72579, 45.60129 ], [ -122.72152, 45.60102 ], [ -122.71903, 45.6002 ], [ -122.72907, 45.59191 ], [ -122.746, 45.59604 ], [ -122.74736, 45.59337 ], [ -122.75339, 45.59492 ], [ -122.75568, 45.59714 ], [ -122.75179, 45.59903 ], [ -122.74898, 45.59954 ], [ -122.7472, 45.60267 ], [ -122.75796, 45.60758 ], [ -122.76287, 45.61259 ], [ -122.76327, 45.61524 ], [ -122.75862, 45.61296 ] ] ] } },
{ "type": "Feature", "properties": { "geoid": "41051003904" }, "geometry": { "type": "Polygon", "coordinates": [ [ [ -122.70242, 45.58402 ], [ -122.7024, 45.59022 ], [ -122.69722, 45.5888 ], [ -122.69226, 45.58697 ], [ -122.69242, 45.57712 ], [ -122.70539, 45.57713 ], [ -122.70537, 45.58403 ], [ -122.70242, 45.58402 ] ] ] } },
{ "type": "Feature", "properties": { "geoid": "41051005103" }, "geometry": { "type": "Polygon", "coordinates": [ [ [ -122.67408, 45.53189 ], [ -122.66779, 45.52677 ], [ -122.66709, 45.52303 ], [ -122.67741, 45.52304 ], [ -122.67764, 45.52988 ], [ -122.67408, 45.53189 ] ] ] } },
{ "type": "Feature", "properties": { "geoid": "41051002902" }, "geometry": { "type": "Polygon", "coordinates": [ [ [ -122.59892, 45.5337 ], [ -122.59957, 45.5337 ], [ -122.5994, 45.54425 ], [ -122.57867, 45.55243 ], [ -122.57904, 45.53375 ], [ -122.58554, 45.53583 ], [ -122.58717, 45.53586 ], [ -122.5892, 45.53557 ], [ -122.59353, 45.53364 ], [ -122.60223, 45.52916 ], [ -122.59892, 45.5337 ] ] ] } },
{ "type": "Feature", "properties": { "geoid": "41051004102" }, "geometry": { "type": "Polygon", "coordinates": [ [ [ -122.75104, 45.589 ], [ -122.74925, 45.58955 ], [ -122.746, 45.59604 ], [ -122.72907, 45.59191 ], [ -122.74708, 45.577 ], [ -122.75637, 45.58108 ], [ -122.75104, 45.589 ] ] ] } },
{ "type": "Feature", "properties": { "geoid": "41051006200" }, "geometry": { "type": "Polygon", "coordinates": [ [ [ -122.71013, 45.45735 ], [ -122.69432, 45.46615 ], [ -122.69012, 45.46959 ], [ -122.68809, 45.47027 ], [ -122.68589, 45.4704 ], [ -122.6794, 45.46976 ], [ -122.67875, 45.47004 ], [ -122.67756, 45.47121 ], [ -122.67763, 45.47273 ], [ -122.67825, 45.47444 ], [ -122.67695, 45.47443 ], [ -122.67696, 45.47302 ], [ -122.67417, 45.47023 ], [ -122.67254, 45.46933 ], [ -122.67304, 45.46753 ], [ -122.67416, 45.46581 ], [ -122.68072, 45.46349 ], [ -122.68551, 45.46297 ], [ -122.68803, 45.46339 ], [ -122.68988, 45.46298 ], [ -122.69115, 45.4619 ], [ -122.69307, 45.45834 ], [ -122.6965, 45.45856 ], [ -122.69902, 45.45904 ], [ -122.70238, 45.45804 ], [ -122.70461, 45.4581 ], [ -122.70999, 45.45706 ], [ -122.71013, 45.45735 ] ] ] } },
{ "type": "Feature", "properties": { "geoid": "41051003301" }, "geometry": { "type": "Polygon", "coordinates": [ [ [ -122.66154, 45.5555 ], [ -122.66143, 45.56274 ], [ -122.64969, 45.56272 ], [ -122.64991, 45.55546 ], [ -122.66154, 45.5555 ] ] ] } },
{ "type": "Feature", "properties": { "geoid": "41051006404" }, "geometry": { "type": "Polygon", "coordinates": [ [ [ -122.7437, 45.44294 ], [ -122.74267, 45.44311 ], [ -122.73857, 45.4448 ], [ -122.73323, 45.44602 ], [ -122.73109, 45.44711 ], [ -122.73107, 45.44182 ], [ -122.72706, 45.44182 ], [ -122.72706, 45.4411 ], [ -122.7128, 45.44112 ], [ -122.71282, 45.44023 ], [ -122.71155, 45.44022 ], [ -122.71232, 45.43814 ], [ -122.71111, 45.43445 ], [ -122.71155, 45.4339 ], [ -122.71289, 45.43362 ], [ -122.71566, 45.43482 ], [ -122.71662, 45.43381 ], [ -122.71614, 45.43308 ], [ -122.72189, 45.43314 ], [ -122.72272, 45.43382 ], [ -122.7246, 45.43408 ], [ -122.72585, 45.43452 ], [ -122.72661, 45.43446 ], [ -122.73044, 45.43324 ], [ -122.74372, 45.43329 ], [ -122.7437, 45.44294 ] ] ] } },
{ "type": "Feature", "properties": { "geoid": "41051002801" }, "geometry": { "type": "Polygon", "coordinates": [ [ [ -122.61092, 45.53903 ], [ -122.61064, 45.54827 ], [ -122.59937, 45.54822 ], [ -122.59948, 45.53874 ], [ -122.61092, 45.53903 ] ] ] } },
{ "type": "Feature", "properties": { "geoid": "41051000402" }, "geometry": { "type": "Polygon", "coordinates": [ [ [ -122.60899, 45.4903 ], [ -122.59898, 45.49026 ], [ -122.59955, 45.48542 ], [ -122.59966, 45.47582 ], [ -122.60873, 45.47583 ], [ -122.60899, 45.4903 ] ] ] } },
{ "type": "Feature", "properties": { "geoid": "41051000702" }, "geometry": { "type": "Polygon", "coordinates": [ [ [ -122.60184, 45.49747 ], [ -122.5787, 45.49741 ], [ -122.57879, 45.49028 ], [ -122.59839, 45.49033 ], [ -122.60196, 45.49219 ], [ -122.60184, 45.49747 ] ] ] } },
{ "type": "Feature", "properties": { "geoid": "41051003801" }, "geometry": { "type": "Polygon", "coordinates": [ [ [ -122.69215, 45.58376 ], [ -122.69226, 45.58697 ], [ -122.68692, 45.58578 ], [ -122.68067, 45.58403 ], [ -122.67434, 45.5839 ], [ -122.67455, 45.57762 ], [ -122.67479, 45.57722 ], [ -122.69242, 45.57712 ], [ -122.69246, 45.5831 ], [ -122.69215, 45.58376 ] ] ] } },
{ "type": "Feature", "properties": { "geoid": "41051006702" }, "geometry": { "type": "Polygon", "coordinates": [ [ [ -122.7232, 45.48499 ], [ -122.72323, 45.48579 ], [ -122.71991, 45.48545 ], [ -122.71647, 45.48447 ], [ -122.71018, 45.48181 ], [ -122.70775, 45.48157 ], [ -122.70138, 45.47964 ], [ -122.69777, 45.47748 ], [ -122.69656, 45.47605 ], [ -122.72314, 45.47624 ], [ -122.72318, 45.48423 ], [ -122.72374, 45.48432 ], [ -122.72714, 45.4835 ], [ -122.7232, 45.48499 ] ] ] } },
{ "type": "Feature", "properties": { "geoid": "41051007001" }, "geometry": { "type": "Polygon", "coordinates": [ [ [ -122.77833, 45.54838 ], [ -122.78051, 45.54848 ], [ -122.7763, 45.55014 ], [ -122.77937, 45.55087 ], [ -122.77738, 45.55186 ], [ -122.77305, 45.55215 ], [ -122.77064, 45.55029 ], [ -122.76975, 45.54891 ], [ -122.76665, 45.547 ], [ -122.76225, 45.54649 ], [ -122.7607, 45.54338 ], [ -122.76113, 45.54279 ], [ -122.75876, 45.53932 ], [ -122.75939, 45.53734 ], [ -122.75751, 45.53567 ], [ -122.75812, 45.53427 ], [ -122.75479, 45.53207 ], [ -122.75669, 45.5307 ], [ -122.76126, 45.52988 ], [ -122.76347, 45.5298 ], [ -122.76344, 45.53119 ], [ -122.76442, 45.5312 ], [ -122.76441, 45.53382 ], [ -122.78484, 45.53401 ], [ -122.78471, 45.54232 ], [ -122.78237, 45.54233 ], [ -122.78342, 45.54358 ], [ -122.78276, 45.54385 ], [ -122.78243, 45.5436 ], [ -122.78211, 45.54408 ], [ -122.77956, 45.54243 ], [ -122.78081, 45.54616 ], [ -122.78018, 45.54619 ], [ -122.77731, 45.54469 ], [ -122.77681, 45.54517 ], [ -122.77841, 45.54601 ], [ -122.77833, 45.54838 ] ] ] } },
{ "type": "Feature", "properties": { "geoid": "41051001801" }, "geometry": { "type": "Polygon", "coordinates": [ [ [ -122.615, 45.52647 ], [ -122.61499, 45.53071 ], [ -122.61093, 45.52816 ], [ -122.60885, 45.52765 ], [ -122.60519, 45.52793 ], [ -122.60223, 45.52916 ], [ -122.59353, 45.53364 ], [ -122.59239, 45.53335 ], [ -122.5944, 45.5304 ], [ -122.59643, 45.53047 ], [ -122.59648, 45.52827 ], [ -122.59862, 45.52648 ], [ -122.59448, 45.52647 ], [ -122.59436, 45.52414 ], [ -122.59373, 45.52313 ], [ -122.60098, 45.52286 ], [ -122.61731, 45.52307 ], [ -122.6173, 45.52642 ], [ -122.615, 45.52647 ] ] ] } },
{ "type": "Feature", "properties": { "geoid": "41051002903" }, "geometry": { "type": "Polygon", "coordinates": [ [ [ -122.57904, 45.53375 ], [ -122.57867, 45.55243 ], [ -122.5778, 45.55278 ], [ -122.57581, 45.55285 ], [ -122.57585, 45.55111 ], [ -122.57851, 45.55112 ], [ -122.57853, 45.54999 ], [ -122.5694, 45.54996 ], [ -122.56937, 45.55281 ], [ -122.56806, 45.5526 ], [ -122.56807, 45.55212 ], [ -122.56531, 45.55092 ], [ -122.56303, 45.54916 ], [ -122.56283, 45.54878 ], [ -122.56348, 45.54818 ], [ -122.56724, 45.54814 ], [ -122.56837, 45.54611 ], [ -122.56815, 45.54451 ], [ -122.56295, 45.5445 ], [ -122.563, 45.54239 ], [ -122.5622, 45.54238 ], [ -122.56467, 45.53352 ], [ -122.56841, 45.53348 ], [ -122.56844, 45.53202 ], [ -122.56892, 45.53198 ], [ -122.57351, 45.53208 ], [ -122.57904, 45.53375 ] ], [ [ -122.56467, 45.54239 ], [ -122.5647, 45.54088 ], [ -122.563, 45.54088 ], [ -122.563, 45.54239 ], [ -122.56467, 45.54239 ] ] ] } },
{ "type": "Feature", "properties": { "geoid": "41051005901" }, "geometry": { "type": "Polygon", "coordinates": [ [ [ -122.67693, 45.49237 ], [ -122.67694, 45.49266 ], [ -122.67699, 45.4925 ], [ -122.67878, 45.49696 ], [ -122.68092, 45.50086 ], [ -122.67876, 45.50068 ], [ -122.67541, 45.5004 ], [ -122.67678, 45.50028 ], [ -122.67707, 45.50024 ], [ -122.67756, 45.50012 ], [ -122.67297, 45.50057 ], [ -122.67355, 45.49282 ], [ -122.67371, 45.49296 ], [ -122.67546, 45.48995 ], [ -122.67879, 45.48721 ], [ -122.67919, 45.48648 ], [ -122.6789, 45.47657 ], [ -122.67763, 45.47273 ], [ -122.67943, 45.47282 ], [ -122.68022, 45.48033 ], [ -122.68091, 45.48392 ], [ -122.68252, 45.48676 ], [ -122.68264, 45.48899 ], [ -122.67781, 45.49132 ], [ -122.67693, 45.49237 ] ], [ [ -122.67845, 45.49635 ], [ -122.6788, 45.497 ], [ -122.67878, 45.49696 ], [ -122.67845, 45.49635 ] ], [ [ -122.67884, 45.50043 ], [ -122.67887, 45.50014 ], [ -122.67876, 45.50068 ], [ -122.67884, 45.50043 ] ], [ [ -122.68053, 45.50017 ], [ -122.68053, 45.50016 ], [ -122.67887, 45.50014 ], [ -122.68053, 45.50017 ] ], [ [ -122.67785, 45.49995 ], [ -122.6778, 45.49995 ], [ -122.67756, 45.50012 ], [ -122.67785, 45.49995 ] ], [ [ -122.67691, 45.49285 ], [ -122.6769, 45.49289 ], [ -122.67691, 45.49306 ], [ -122.67691, 45.49285 ] ], [ [ -122.67722, 45.49452 ], [ -122.67725, 45.49465 ], [ -122.67732, 45.49476 ], [ -122.67722, 45.49452 ] ], [ [ -122.6775, 45.4951 ], [ -122.6779, 45.49562 ], [ -122.67801, 45.49574 ], [ -122.6775, 45.4951 ] ], [ [ -122.67765, 45.49149 ], [ -122.67758, 45.49155 ], [ -122.67744, 45.4917 ], [ -122.67765, 45.49149 ] ], [ [ -122.67845, 45.50009 ], [ -122.67825, 45.50001 ], [ -122.67868, 45.50049 ], [ -122.67845, 45.50009 ] ], [ [ -122.67822, 45.49599 ], [ -122.67832, 45.49614 ], [ -122.67827, 45.49606 ], [ -122.67822, 45.49599 ] ] ] } },
{ "type": "Feature", "properties": { "geoid": "41051004104" }, "geometry": { "type": "Polygon", "coordinates": [ [ [ -122.78029, 45.61797 ], [ -122.77911, 45.61718 ], [ -122.76657, 45.61583 ], [ -122.76327, 45.61524 ], [ -122.76287, 45.61259 ], [ -122.75796, 45.60758 ], [ -122.7472, 45.60267 ], [ -122.74898, 45.59954 ], [ -122.75179, 45.59903 ], [ -122.75568, 45.59714 ], [ -122.75661, 45.5981 ], [ -122.766, 45.59422 ], [ -122.77037, 45.60086 ], [ -122.77087, 45.60047 ], [ -122.77716, 45.59798 ], [ -122.77846, 45.59949 ], [ -122.78834, 45.61487 ], [ -122.78256, 45.61794 ], [ -122.78029, 45.61797 ] ] ] } },
{ "type": "Feature", "properties": { "geoid": "41051005601" }, "geometry": { "type": "Polygon", "coordinates": [ [ [ -122.68631, 45.51656 ], [ -122.67874, 45.51453 ], [ -122.67979, 45.51252 ], [ -122.6874, 45.51455 ], [ -122.68631, 45.51656 ] ] ] } },
{ "type": "Feature", "properties": { "geoid": "41051000902" }, "geometry": { "type": "Polygon", "coordinates": [ [ [ -122.63759, 45.49779 ], [ -122.63488, 45.49716 ], [ -122.6315, 45.49679 ], [ -122.6226, 45.49734 ], [ -122.62276, 45.4903 ], [ -122.62977, 45.49032 ], [ -122.63081, 45.4906 ], [ -122.63464, 45.49031 ], [ -122.63957, 45.4903 ], [ -122.63962, 45.49794 ], [ -122.63759, 45.49779 ] ] ] } },
{ "type": "Feature", "properties": { "geoid": "41051001203" }, "geometry": { "type": "Polygon", "coordinates": [ [ [ -122.6496, 45.51505 ], [ -122.63478, 45.51502 ], [ -122.63477, 45.51207 ], [ -122.6496, 45.5122 ], [ -122.6496, 45.51505 ] ] ] } },
{ "type": "Feature", "properties": { "geoid": "41051010601" }, "geometry": { "type": "Polygon", "coordinates": [ [ [ -122.68631, 45.51656 ], [ -122.6831, 45.52248 ], [ -122.68315, 45.52293 ], [ -122.68009, 45.523 ], [ -122.68008, 45.52176 ], [ -122.68327, 45.51574 ], [ -122.68631, 45.51656 ] ] ] } },
{ "type": "Feature", "properties": { "geoid": "41051008800" }, "geometry": { "type": "Polygon", "coordinates": [ [ [ -122.61585, 45.46255 ], [ -122.61597, 45.46942 ], [ -122.61002, 45.46761 ], [ -122.61001, 45.46864 ], [ -122.58935, 45.46865 ], [ -122.58937, 45.46153 ], [ -122.61538, 45.46149 ], [ -122.61656, 45.46205 ], [ -122.61585, 45.46255 ] ] ] } },
{ "type": "Feature", "properties": { "geoid": "41051007002" }, "geometry": { "type": "Polygon", "coordinates": [ [ [ -122.8674, 45.6068 ], [ -122.86423, 45.60834 ], [ -122.86144, 45.60799 ], [ -122.8474, 45.60442 ], [ -122.84286, 45.60577 ], [ -122.84166, 45.60655 ], [ -122.83648, 45.60691 ], [ -122.83552, 45.60747 ], [ -122.83337, 45.60565 ], [ -122.83278, 45.60353 ], [ -122.8327, 45.60049 ], [ -122.83213, 45.59975 ], [ -122.82748, 45.59993 ], [ -122.82645, 45.59928 ], [ -122.82645, 45.59724 ], [ -122.82548, 45.59646 ], [ -122.82013, 45.59569 ], [ -122.81885, 45.59437 ], [ -122.81356, 45.59206 ], [ -122.81209, 45.58997 ], [ -122.80577, 45.58808 ], [ -122.80513, 45.58621 ], [ -122.79945, 45.58299 ], [ -122.79817, 45.58063 ], [ -122.79644, 45.57958 ], [ -122.79424, 45.57673 ], [ -122.79443, 45.57324 ], [ -122.79114, 45.57258 ], [ -122.78984, 45.57055 ], [ -122.79054, 45.56785 ], [ -122.78962, 45.56571 ], [ -122.78471, 45.56554 ], [ -122.76532, 45.56144 ], [ -122.76311, 45.56195 ], [ -122.75963, 45.56122 ], [ -122.76026, 45.5603 ], [ -122.76358, 45.55887 ], [ -122.76059, 45.55862 ], [ -122.76099, 45.55776 ], [ -122.75771, 45.55809 ], [ -122.75572, 45.5574 ], [ -122.75719, 45.55459 ], [ -122.75489, 45.55619 ], [ -122.75282, 45.5566 ], [ -122.75318, 45.553 ], [ -122.75218, 45.55368 ], [ -122.7507, 45.55608 ], [ -122.74855, 45.55769 ], [ -122.74416, 45.55733 ], [ -122.74136, 45.55516 ], [ -122.73931, 45.55468 ], [ -122.73698, 45.55129 ], [ -122.7354, 45.54968 ], [ -122.73348, 45.54916 ], [ -122.73307, 45.54816 ], [ -122.73533, 45.54765 ], [ -122.7337, 45.54711 ], [ -122.735, 45.54479 ], [ -122.7321, 45.54611 ], [ -122.72901, 45.54652 ], [ -122.72671, 45.54395 ], [ -122.72715, 45.54299 ], [ -122.72618, 45.54044 ], [ -122.72655, 45.53973 ], [ -122.72631, 45.53933 ], [ -122.72688, 45.53852 ], [ -122.72671, 45.53833 ], [ -122.72391, 45.53979 ], [ -122.71968, 45.53771 ], [ -122.71827, 45.53325 ], [ -122.71518, 45.53341 ], [ -122.7125, 45.53553 ], [ -122.71266, 45.53348 ], [ -122.71422, 45.5321 ], [ -122.71489, 45.53196 ], [ -122.71682, 45.53059 ], [ -122.71498, 45.53013 ], [ -122.71496, 45.52682 ], [ -122.71961, 45.52644 ], [ -122.71972, 45.52298 ], [ -122.71875, 45.52168 ], [ -122.72089, 45.52044 ], [ -122.72267, 45.51903 ], [ -122.72696, 45.5198 ], [ -122.73173, 45.5187 ], [ -122.73716, 45.51955 ], [ -122.74132, 45.51829 ], [ -122.74385, 45.51667 ], [ -122.74382, 45.52312 ], [ -122.75931, 45.52316 ], [ -122.75932, 45.52675 ], [ -122.76206, 45.52675 ], [ -122.76205, 45.52754 ], [ -122.76316, 45.52753 ], [ -122.76314, 45.52979 ], [ -122.75771, 45.53039 ], [ -122.75669, 45.5307 ], [ -122.75479, 45.53207 ], [ -122.75812, 45.53427 ], [ -122.75751, 45.53567 ], [ -122.75939, 45.53734 ], [ -122.75876, 45.53932 ], [ -122.76113, 45.54279 ], [ -122.7607, 45.54338 ], [ -122.76225, 45.54649 ], [ -122.76665, 45.547 ], [ -122.76975, 45.54891 ], [ -122.77064, 45.55029 ], [ -122.77305, 45.55215 ], [ -122.77738, 45.55186 ], [ -122.77937, 45.55087 ], [ -122.7763, 45.55014 ], [ -122.78051, 45.54848 ], [ -122.77953, 45.54839 ], [ -122.7847, 45.54842 ], [ -122.7847, 45.55572 ], [ -122.80313, 45.55569 ], [ -122.80459, 45.55618 ], [ -122.80537, 45.55572 ], [ -122.80536, 45.56289 ], [ -122.82581, 45.56305 ], [ -122.82603, 45.5775 ], [ -122.84666, 45.57758 ], [ -122.84656, 45.59191 ], [ -122.86726, 45.5919 ], [ -122.8674, 45.6068 ] ] ] } },
{ "type": "Feature", "properties": { "geoid": "41051006403" }, "geometry": { "type": "Polygon", "coordinates": [ [ [ -122.72778, 45.45164 ], [ -122.72629, 45.45271 ], [ -122.72429, 45.45338 ], [ -122.71961, 45.45353 ], [ -122.71628, 45.45406 ], [ -122.71013, 45.45735 ], [ -122.70999, 45.45706 ], [ -122.71278, 45.4536 ], [ -122.7128, 45.44112 ], [ -122.72706, 45.4411 ], [ -122.72706, 45.44182 ], [ -122.73107, 45.44182 ], [ -122.73109, 45.44711 ], [ -122.72778, 45.45164 ] ] ] } },
{ "type": "Feature", "properties": { "geoid": "41051000901" }, "geometry": { "type": "Polygon", "coordinates": [ [ [ -122.6396, 45.50481 ], [ -122.62266, 45.5048 ], [ -122.6226, 45.49734 ], [ -122.6315, 45.49679 ], [ -122.63962, 45.49794 ], [ -122.6396, 45.50481 ] ] ] } },
{ "type": "Feature", "properties": { "geoid": "41051001802" }, "geometry": { "type": "Polygon", "coordinates": [ [ [ -122.61731, 45.51928 ], [ -122.61731, 45.52307 ], [ -122.60098, 45.52286 ], [ -122.59373, 45.52313 ], [ -122.5919, 45.5221 ], [ -122.5949, 45.52217 ], [ -122.59843, 45.51925 ], [ -122.60023, 45.51925 ], [ -122.60024, 45.51675 ], [ -122.61778, 45.51656 ], [ -122.6178, 45.51928 ], [ -122.61731, 45.51928 ] ] ] } },
{ "type": "Feature", "properties": { "geoid": "41051980000" }, "geometry": { "type": "GeometryCollection", "geometries": [ { "type": "Polygon", "coordinates": [ [ [ -122.71853, 45.57456 ], [ -122.7135, 45.5753 ], [ -122.70795, 45.57495 ], [ -122.70402, 45.57387 ], [ -122.7018, 45.57236 ], [ -122.70002, 45.56993 ], [ -122.69901, 45.56545 ], [ -122.69707, 45.56543 ], [ -122.69756, 45.5627 ], [ -122.69974, 45.5627 ], [ -122.69423, 45.556 ], [ -122.69121, 45.55237 ], [ -122.68203, 45.54576 ], [ -122.67791, 45.54358 ], [ -122.67793, 45.54213 ], [ -122.68327, 45.53792 ], [ -122.69086, 45.54378 ], [ -122.69799, 45.55029 ], [ -122.7169, 45.55741 ], [ -122.7227, 45.5603 ], [ -122.73052, 45.56493 ], [ -122.73018, 45.56522 ], [ -122.72327, 45.57101 ], [ -122.72201, 45.57309 ], [ -122.71853, 45.57456 ] ] ] }, { "type": "LineString", "coordinates": [ [ -122.73018, 45.56522 ], [ -122.73, 45.56507 ] ] } ] } },
{ "type": "Feature", "properties": { "geoid": "41051004902" }, "geometry": { "type": "Polygon", "coordinates": [ [ [ -122.69252, 45.5299 ], [ -122.68948, 45.52996 ], [ -122.68938, 45.52711 ], [ -122.68831, 45.5257 ], [ -122.68822, 45.52292 ], [ -122.69227, 45.52312 ], [ -122.69252, 45.5299 ] ] ] } }
]
}
